STARLINK-1007
1 44713U 19074A   26152.54166667  .00001200  00000-0  10000-4 0  9995
2 44713  53.0540  45.2340 0001200 100.0000 260.0000 15.06391419380008
STARLINK-1008
1 44714U 19074B   26152.54166667  .00001100  00000-0  10000-4 0  9995
2 44714  53.0540  45.2350 0001100 101.0000 261.0000 15.06391420380014
STARLINK-1009
1 44715U 19074C   26152.54166667  .00001000  00000-0  10000-4 0  9995
2 44715  53.0540  45.2360 0001000 102.0000 262.0000 15.06391421380029
